OBJECT_NAME,OBJECT_ID,EPOCH,MEAN_MOTION,ECCENTRICITY,INCLINATION,RA_OF_ASC_NODE,ARG_OF_PERICENTER,MEAN_ANOMALY,EPHEMERIS_TYPE,CLASSIFICATION_TYPE,NORAD_CAT_ID,ELEMENT_SET_NO,REV_AT_EPOCH,BSTAR,MEAN_MOTION_DOT,MEAN_MOTION_DDOT
STARLINK-31526,2024-036U,2026-07-01T10:30:38.005632,15.31699888,.00007606,53.1600,243.8040,91.3565,268.7524,0,U,59016,999,13310,.68829316E-4,.1772E-4,0
STARLINK-31406,2024-036V,2026-07-01T21:40:26.721120,15.34396245,.00009922,53.1578,252.4450,68.4518,291.6591,0,U,59017,999,13302,.5511361E-5,-.19E-5,0
STARLINK-31527,2024-036W,2026-07-01T22:38:58.050816,15.30196041,.00010992,53.1607,267.6050,93.3629,266.7498,0,U,59018,999,13281,-.25788927E-4,-.1123E-4,0
STARLINK-31436,2024-036X,2026-07-01T12:09:27.547776,15.30207153,.0001335,53.1609,269.8439,80.8747,279.2405,0,U,59019,999,13274,.13293626E-3,.3581E-4,0
STARLINK-30996,2024-038A,2026-06-30T23:27:20.824704,15.27555477,.00010642,43.0003,107.2654,258.9734,101.0998,0,U,59023,999,13345,.50000312E-3,.13512E-3,0
STARLINK-31006,2024-038B,2026-07-01T22:32:00.037248,15.27590633,.00011312,43.0023,51.3913,258.6401,101.4323,0,U,59024,999,13281,.72313147E-4,.1729E-4,0
STARLINK-31178,2024-038C,2026-07-01T20:06:12.178080,15.27568633,.00012947,43.0051,102.5436,279.2608,80.8097,0,U,59025,999,13210,.1182922E-3,.2993E-4,0
STARLINK-30863,2024-038E,2026-07-01T19:03:28.569888,15.27583234,.00010606,43.0020,103.0606,263.3563,96.7168,0,U,59027,999,13209,.48070174E-4,.1061E-4,0
STARLINK-31206,2024-038F,2026-07-01T21:42:55.129536,15.27588890,.00014326,43.0045,36.9913,274.9020,85.1668,0,U,59028,999,13299,.7268118E-5,-.62E-6,0
STARLINK-31224,2024-038G,2026-07-01T19:25:28.373952,15.27586211,.00022336,43.0060,102.3330,278.4346,81.6252,0,U,59029,999,13221,.11606455E-3,.2933E-4,0
STARLINK-31186,2024-038H,2026-07-01T18:37:34.121568,15.27585051,.00012277,43.0008,102.9344,253.7872,106.2845,0,U,59030,999,13220,.57419461E-4,.1319E-4,0
STARLINK-31211,2024-038J,2026-07-01T19:18:04.227840,15.27586916,.00007363,43.0033,102.2927,275.0638,85.0130,0,U,59031,999,13210,.1707565E-4,.208E-5,0
STARLINK-30862,2024-038K,2026-07-01T18:52:25.622688,15.27553481,.00013869,43.0007,91.8178,223.6831,136.3911,0,U,59032,999,13222,.79868274E-4,.1935E-4,0
STARLINK-31210,2024-038L,2026-07-01T01:05:54.495168,15.27579056,.00015965,43.0048,103.4728,282.2309,77.8364,0,U,59033,999,13219,.58251179E-4,.1341E-4,0
STARLINK-31231,2024-038M,2026-06-30T23:26:12.116832,15.27578825,.00011058,43.0021,103.8096,272.0675,88.0051,0,U,59034,999,13201,.34884789E-4,.698E-5,0
STARLINK-31207,2024-038N,2026-06-30T20:12:20.468448,15.27576577,.00011667,43.0034,104.5236,288.1781,71.8943,0,U,59035,999,13216,.24768893E-4,.419E-5,0
STARLINK-31217,2024-038P,2026-07-01T19:26:36.931488,15.27586863,.00012497,43.0034,4.7257,282.8062,77.2650,0,U,59036,999,13339,.5775447E-5,-.103E-5,0
STARLINK-31208,2024-038Q,2026-07-01T19:09:01.482912,15.27581360,.00014197,42.9991,103.0681,270.7331,89.3358,0,U,59037,999,13226,.16637796E-3,.4319E-4,0
STARLINK-31235,2024-038R,2026-06-30T20:08:38.278752,15.27579533,.00009438,43.0012,104.4983,260.3702,99.7043,0,U,59038,999,13210,.43347592E-4,.931E-5,0
STARLINK-31220,2024-038S,2026-07-01T19:43:58.025568,15.27577590,.00008991,43.0036,102.4242,258.6616,101.4134,0,U,59039,999,13221,.95658947E-4,.2371E-4,0
STARLINK-31225,2024-038T,2026-07-01T19:20:36.636576,15.27593630,.00014862,43.0023,98.8181,270.0109,90.0572,0,U,59040,999,13214,.51361498E-3,.13904E-3,0
STARLINK-31240,2024-038U,2026-07-01T01:26:15.644256,15.27585109,.0001786,43.0028,103.5771,279.3309,80.7340,0,U,59041,999,13213,.1382674E-5,-.224E-5,0
STARLINK-31202,2024-038V,2026-07-01T19:45:30.116736,15.29276211,.00047011,43.0025,98.1371,250.8253,109.2091,0,U,59042,999,13232,.1275646E-2,.36904E-3,0
STARLINK-31234,2024-038W,2026-07-01T20:06:53.058240,15.27581305,.00017087,43.0068,99.1016,289.4219,70.6449,0,U,59043,999,13214,-.1432974E-5,-.302E-5,0
STARLINK-31153,2024-038X,2026-07-01T19:35:25.159488,15.27584372,.0000777,43.0007,98.9293,250.9603,109.1164,0,U,59044,999,13214,.65285444E-4,.1535E-4,0
STARLINK-31241,2024-038Y,2026-07-01T20:12:26.548416,15.27569019,.00014445,43.0014,99.1251,262.8214,97.2474,0,U,59045,999,13231,-.51597138E-4,-.1681E-4,0
STARLINK-31205,2024-038Z,2026-07-01T20:01:21.274464,15.27573480,.00028515,43.0079,99.0738,299.7774,60.2794,0,U,59046,999,13225,.26092094E-4,.455E-5,0
STARLINK-31265,2024-041A,2026-07-01T20:51:13.714272,15.27597484,.00009593,43.0033,25.8897,270.2581,89.8161,0,U,59074,999,13173,.71399362E-4,.1704E-4,0
STARLINK-31276,2024-041B,2026-07-01T20:04:58.560960,15.27599655,.00016462,43.0021,25.6521,270.5829,89.4834,0,U,59075,999,13178,.32498232E-4,.633E-5,0
STARLINK-31259,2024-041C,2026-07-01T20:10:31.821312,15.27593172,.00017266,43.0022,25.6809,272.2366,87.8288,0,U,59076,999,13068,.27710993E-4,.501E-5,0
