STARLINK-31526          
1 59016U 24036U   26182.43793988  .00001772  00000+0  68829-4 0  9999
2 59016  53.1600 243.8040 0000760  91.3565 268.7524 15.31699888133101
STARLINK-31406          
1 59017U 24036V   26182.90308705 -.00000190  00000+0  55114-5 0  9999
2 59017  53.1578 252.4450 0000992  68.4518 291.6591 15.34396245133021
STARLINK-31527          
1 59018U 24036W   26182.94372744 -.00001123  00000+0 -25789-4 0  9990
2 59018  53.1607 267.6050 0001099  93.3629 266.7498 15.30196041132811
STARLINK-31436          
1 59019U 24036X   26182.50656884  .00003581  00000+0  13294-3 0  9998
2 59019  53.1609 269.8439 0001335  80.8747 279.2405 15.30207153132740
STARLINK-30996          
1 59023U 24038A   26181.97732436  .00013512  00000+0  50000-3 0  9994
2 59023  43.0003 107.2654 0001064 258.9734 101.0998 15.27555477133457
STARLINK-31006          
1 59024U 24038B   26182.93888932  .00001729  00000+0  72313-4 0  9994
2 59024  43.0023  51.3913 0001131 258.6401 101.4323 15.27590633132818
STARLINK-31178          
1 59025U 24038C   26182.83764095  .00002993  00000+0  11829-3 0  9995
2 59025  43.0051 102.5436 0001294 279.2608  80.8097 15.27568633132102
STARLINK-30863          
1 59027U 24038E   26182.79408067  .00001061  00000+0  48070-4 0  9990
2 59027  43.0020 103.0606 0001060 263.3563  96.7168 15.27583234132097
STARLINK-31206          
1 59028U 24038F   26182.90480474 -.00000062  00000+0  72681-5 0  9993
2 59028  43.0045  36.9913 0001432 274.9020  85.1668 15.27588890132998
STARLINK-31224          
1 59029U 24038G   26182.80935618  .00002933  00000+0  11606-3 0  9994
2 59029  43.0060 102.3330 0002233 278.4346  81.6252 15.27586211132217
STARLINK-31186          
1 59030U 24038H   26182.77608937  .00001319  00000+0  57419-4 0  9993
2 59030  43.0008 102.9344 0001227 253.7872 106.2845 15.27585051132206
STARLINK-31211          
1 59031U 24038J   26182.80421560  .00000208  00000+0  17076-4 0  9994
2 59031  43.0033 102.2927 0000736 275.0638  85.0130 15.27586916132107
STARLINK-30862          
1 59032U 24038K   26182.78640767  .00001935  00000+0  79868-4 0  9999
2 59032  43.0007  91.8178 0001386 223.6831 136.3911 15.27553481132227
STARLINK-31210          
1 59033U 24038L   26182.04576962  .00001341  00000+0  58251-4 0  9998
2 59033  43.0048 103.4728 0001596 282.2309  77.8364 15.27579056132191
STARLINK-31231          
1 59034U 24038M   26181.97652913  .00000698  00000+0  34885-4 0  9992
2 59034  43.0021 103.8096 0001105 272.0675  88.0051 15.27578825132015
STARLINK-31207          
1 59035U 24038N   26181.84190357  .00000419  00000+0  24769-4 0  9999
2 59035  43.0034 104.5236 0001166 288.1781  71.8943 15.27576577132165
STARLINK-31217          
1 59036U 24038P   26182.81014967 -.00000103  00000+0  57754-5 0  9992
2 59036  43.0034   4.7257 0001249 282.8062  77.2650 15.27586863133395
STARLINK-31208          
1 59037U 24038Q   26182.79793383  .00004319  00000+0  16638-3 0  9992
2 59037  42.9991 103.0681 0001419 270.7331  89.3358 15.27581360132265
STARLINK-31235          
1 59038U 24038R   26181.83933193  .00000931  00000+0  43348-4 0  9997
2 59038  43.0012 104.4983 0000943 260.3702  99.7043 15.27579533132108
STARLINK-31220          
1 59039U 24038S   26182.82219937  .00002371  00000+0  95659-4 0  9993
2 59039  43.0036 102.4242 0000899 258.6616 101.4134 15.27577590132210
STARLINK-31225          
1 59040U 24038T   26182.80597959  .00013904  00000+0  51361-3 0  9991
2 59040  43.0023  98.8181 0001486 270.0109  90.0572 15.27593630132140
STARLINK-31240          
1 59041U 24038U   26182.05990329 -.00000224  00000+0  13827-5 0  9996
2 59041  43.0028 103.5771 0001786 279.3309  80.7340 15.27585109132132
STARLINK-31202          
1 59042U 24038V   26182.82326524  .00036904  00000+0  12756-2 0  9992
2 59042  43.0025  98.1371 0004701 250.8253 109.2091 15.29276211132321
STARLINK-31234          
1 59043U 24038W   26182.83811410 -.00000302  00000+0 -14330-5 0  9995
2 59043  43.0068  99.1016 0001708 289.4219  70.6449 15.27581305132149
STARLINK-31153          
1 59044U 24038X   26182.81626342  .00001535  00000+0  65285-4 0  9993
2 59044  43.0007  98.9293 0000777 250.9603 109.1164 15.27584372132141
STARLINK-31241          
1 59045U 24038Y   26182.84197394 -.00001681  00000+0 -51597-4 0  9992
2 59045  43.0014  99.1251 0001444 262.8214  97.2474 15.27569019132310
STARLINK-31205          
1 59046U 24038Z   26182.83427401  .00000455  00000+0  26092-4 0  9995
2 59046  43.0079  99.0738 0002851 299.7774  60.2794 15.27573480132259
STARLINK-31265          
1 59074U 24041A   26182.86890873  .00001704  00000+0  71399-4 0  9998
2 59074  43.0033  25.8897 0000959 270.2581  89.8161 15.27597484131737
STARLINK-31276          
1 59075U 24041B   26182.83678890  .00000633  00000+0  32498-4 0  9996
2 59075  43.0021  25.6521 0001646 270.5829  89.4834 15.27599655131789
STARLINK-31259          
1 59076U 24041C   26182.84064608  .00000501  00000+0  27711-4 0  9990
2 59076  43.0022  25.6809 0001726 272.2366  87.8288 15.27593172130685
